ONEWEB-0328             
1 49197U 21083M   26062.79162648 -.00000264  00000+0 -75828-3 0  9999
2 49197  87.9050 341.1641 0001882  76.1243 284.0096 13.13469257217069
ONEWEB-0331             
1 49198U 21083N   26062.29962688  .00000083  00000+0  17688-3 0  9994
2 49198  87.9249 356.4738 0001872  68.5900 291.5432 13.18685857216056
ONEWEB-0333             
1 49199U 21083P   26062.78654727 -.00000145  00000+0 -43307-3 0  9999
2 49199  87.9029 341.2054 0001691  78.1325 281.9993 13.13469309217078
ONEWEB-0334             
1 49200U 21083Q   26062.68908152  .00000064  00000+0  12449-3 0  9996
2 49200  87.9173 295.5182 0001797 116.1097 244.0221 13.20772004222864
ONEWEB-0335             
1 49201U 21083R   26062.70528825 -.00000082  00000+0 -25858-3 0  9995
2 49201  87.9038 341.2145 0001754  72.1317 288.0003 13.13468329217079
ONEWEB-0336             
1 49202U 21083S   26062.67651419  .00000427  00000+0  11335-2 0  9993
2 49202  87.9037 341.2166 0001866  65.5610 294.5713 13.13469629217061
ONEWEB-0337             
1 49203U 21083T   26062.76272166  .00000330  00000+0  86763-3 0  9993
2 49203  87.9032 341.2097 0001912  74.9182 285.2159 13.13469450217074
ONEWEB-0338             
1 49204U 21083U   26062.66381830  .00000027  00000+0  34864-4 0  9991
2 49204  87.9174 295.5277 0001633  95.9916 264.1403 13.20769807222881
ONEWEB-0339             
1 49205U 21083V   26062.77131950  .00000211  00000+0  54164-3 0  9999
2 49205  87.9042 341.1951 0001856  87.2168 272.9173 13.13469227217052
ONEWEB-0340             
1 49206U 21083W   26062.74168546  .00000037  00000+0  61914-4 0  9996
2 49206  87.9251 356.3918 0001801  75.1292 285.0039 13.18686187216078
ONEWEB-0341             
1 49207U 21083X   26062.74828732  .00000078  00000+0  16424-3 0  9997
2 49207  87.9247 356.4007 0002320  76.5277 283.6114 13.18686142216090
ONEWEB-0342             
1 49208U 21083Y   26062.67013460  .00000053  00000+0  99621-4 0  9998
2 49208  87.9184 295.5040 0001630  87.3572 272.7748 13.20772681222852
ONEWEB-0343             
1 49209U 21083Z   26062.37714537  .00000119  00000+0  26828-3 0  9990
2 49209  87.9249 356.4676 0002326  84.7575 275.3822 13.18686642216093
ONEWEB-0344             
1 49210U 21083AA  26062.76624150  .00000294  00000+0  77063-3 0  9997
2 49210  87.9028 341.2202 0002114  75.5602 284.5762 13.13469284217059
ONEWEB-0345             
1 49211U 21083AB  26062.30070259  .00000056  00000+0  11858-3 0  9999
2 49211  87.9042 341.2795 0002121  76.2509 283.8856 13.13468835217007
ONEWEB-0346             
1 49212U 21083AC  26062.37382678  .00000054  00000+0  10510-3 0  9990
2 49212  87.9241 356.4773 0001734  56.8005 303.3294 13.18688029216037
ONEWEB-0348             
1 49213U 21083AD  26062.66067209  .00000084  00000+0  17448-3 0  9993
2 49213  87.9182 295.5088 0001834  65.6945 294.4380 13.20771941222881
ONEWEB-0350             
1 49214U 21083AE  26062.76708686  .00000281  00000+0  73474-3 0  9996
2 49214  87.9041 341.1862 0002032  73.5157 286.6195 13.13469455217098
ONEWEB-0351             
1 49215U 21083AF  26062.65422784  .00000078  00000+0  15956-3 0  9992
2 49215  87.9183 295.5088 0002238 103.0199 257.1185 13.20772769222845
ONEWEB-0352             
1 49216U 21083AG  26062.74762365  .00000275  00000+0  71888-3 0  9990
2 49216  87.9037 341.2064 0001972  89.8881 270.2474 13.13470716217187
ONEWEB-0354             
1 49217U 21083AH  26062.67960370  .00000087  00000+0  18234-3 0  9996
2 49217  87.9183 295.5029 0001799  75.4811 284.6522 13.20772318222880
ONEWEB-0355             
1 49218U 21083AJ  26062.70034535  .00000107  00000+0  25780-3 0  9993
2 49218  87.9031 341.2266 0001973  81.2760 278.8593 13.13468464217059
ONEWEB-0357             
1 49219U 21083AK  26062.67644933  .00000610  00000+0  14674-2 0  9997
2 49219  87.9184 295.4979 0001733  86.5838 273.5493 13.20769335222885
ONEWEB-0332             
1 49279U 21090A   26062.71937873 -.00000143  00000+0 -42047-3 0  9993
2 49279  87.8997 310.7513 0001552  88.5548 271.5759 13.14502224213727
ONEWEB-0347             
1 49280U 21090B   26062.66697333 -.00000164  00000+0 -43425-3 0  9997
2 49280  87.9184 295.5089 0001358  89.1384 270.9905 13.20770793217113
ONEWEB-0349             
1 49281U 21090C   26062.69855148 -.00000005  00000+0 -44486-4 0  9994
2 49281  87.9186 295.5022 0001588  82.8744 277.2570 13.20772352215904
ONEWEB-0353             
1 49282U 21090D   26062.71144945 -.00000112  00000+0 -33579-3 0  9993
2 49282  87.9003 310.7468 0001477  87.5820 272.5479 13.14502171213728
ONEWEB-0356             
1 49283U 21090E   26062.69695852  .00000053  00000+0  98878-4 0  9995
2 49283  87.9181 295.4961 0000893  57.4004 302.7215 13.20772678215908
ONEWEB-0358             
1 49284U 21090F   26062.65120359  .00000096  00000+0  20398-3 0  9995
2 49284  87.9182 295.5083 0001583  79.2450 280.8862 13.20772362216624
ONEWEB-0359             
1 49285U 21090G   26062.64804344  .00000036  00000+0  56859-4 0  9994
2 49285  87.9183 295.5056 0001789  76.3469 283.7864 13.20769816216604
ONEWEB-0360             
1 49286U 21090H   26062.71431906  .00000057  00000+0  10843-3 0  9998
2 49286  87.9180 295.4995 0001727  80.2279 279.9049 13.20773562215927
ONEWEB-0361             
1 49287U 21090J   26062.69538689  .00000020  00000+0  16726-4 0  9999
2 49287  87.9183 295.5003 0001457  79.6764 280.4533 13.20772582216379
ONEWEB-0362             
1 49288U 21090K   26062.71606833 -.00000024  00000+0 -92387-4 0  9993
2 49288  87.9236 325.9901 0001918  83.3960 276.7391 13.19725777213005
ONEWEB-0363             
1 49289U 21090L   26062.71118366  .00000046  00000+0  82243-4 0  9995
2 49289  87.9182 295.4980 0001355  73.4144 286.7138 13.20773502216388
ONEWEB-0364             
1 49290U 21090M   26062.67329878  .00000083  00000+0  17186-3 0  9998
2 49290  87.9168 295.5208 0001529  80.4084 279.7222 13.20771626217519
ONEWEB-0365             
1 49291U 21090N   26062.72553618  .00000112  00000+0  24775-3 0  9991
2 49291  87.9249 325.9671 0001756  83.0715 277.0617 13.19723202212513
ONEWEB-0366             
1 49292U 21090P   26062.70827971 -.00000177  00000+0 -51123-3 0  9996
2 49292  87.8992 310.7579 0001630  78.5642 281.5670 13.14501749213702
ONEWEB-0367             
1 49293U 21090Q   26062.70958991 -.00000018  00000+0 -76295-4 0  9996
2 49293  87.9186 295.4985 0001755  87.7532 272.3802 13.20772850215906
ONEWEB-0368             
1 49294U 21090R   26062.68275906  .00000102  00000+0  21984-3 0  9998
2 49294  87.9174 295.5260 0000877  99.7313 260.3919 13.20772637217052
ONEWEB-0369             
1 49295U 21090S   26062.72080654  .00000038  00000+0  63540-4 0  9991
2 49295  87.9239 325.9863 0001633  79.7994 280.3323 13.19726100212504
ONEWEB-0370             
1 49296U 21090T   26062.71906887  .00000080  00000+0  16600-3 0  9997
2 49296  87.9180 295.4977 0001909  82.6654 277.4696 13.20771971215948
ONEWEB-0371             
1 49297U 21090U   26062.72870521 -.00000020  00000+0 -83143-4 0  9997
2 49297  87.9241 325.9737 0001791  80.5057 279.6278 13.19725285212541
ONEWEB-0372             
1 49298U 21090V   26062.70788713  .00000002  00000+0 -27851-4 0  9990
2 49298  87.9184 295.5005 0001569  88.2905 271.8408 13.20771862215915
ONEWEB-0373             
1 49299U 21090W   26062.65908229  .00000135  00000+0  30027-3 0  9995
2 49299  87.9172 295.5163 0001647  79.9943 280.1376 13.20770236217096
ONEWEB-0374             
1 49300U 21090X   26062.69559093  .00000022  00000+0  23772-4 0  9998
2 49300  87.8999 310.7439 0001197  65.1750 294.9504 13.14501313213705
ONEWEB-0375             
1 49301U 21090Y   26062.64647358 -.00000012  00000+0 -60373-4 0  9995
2 49301  87.9184 295.5055 0001491  63.0961 297.0324 13.20771664216594
ONEWEB-0376             
1 49302U 21090Z   26062.72711927  .00000019  00000+0  15582-4 0  9996
2 49302  87.9246 325.9670 0001698  86.7125 273.4202 13.19726753212549
ONEWEB-0377             
1 49303U 21090AA  26062.70814830  .00000542  00000+0  13014-2 0  9999
2 49303  87.9181 295.4953 0001799  80.5105 279.6232 13.20782557216591
ONEWEB-0378             
1 49304U 21090AB  26062.65448291  .00000124  00000+0  27255-3 0  9997
2 49304  87.9173 295.5170 0001480  80.0023 280.1278 13.20772967215855
ONEWEB-0379             
1 49305U 21090AC  26062.69083763  .00000070  00000+0  15338-3 0  9990
2 49305  87.9001 310.7540 0001501  80.9733 279.1567 13.14502064213701
ONEWEB-0380             
1 49306U 21090AD  26062.72396083 -.00000033  00000+0 -11394-3 0  9996
2 49306  87.9239 325.9835 0001768  71.0895 289.0429 13.19726016212510
ONEWEB-0381             
1 49307U 21090AE  26062.70485030 -.00000006  00000+0 -47861-4 0  9995
2 49307  87.9183 295.4995 0001442  74.4383 285.6909 13.20773171215902
ONEWEB-0382             
1 49308U 21090AF  26062.69222847  .00000025  00000+0  30173-4 0  9996
2 49308  87.9183 295.4982 0001327  74.2525 285.8754 13.20772911215896
ONEWEB-0383             
1 49309U 21090AG  26062.76060576  .00000292  00000+0  75416-3 0  9998
2 49309  87.9000 310.7268 0001446  79.3904 280.7388 13.14501492213748
ONEWEB-0384             
1 49310U 21090AH  26062.68373214  .00000066  00000+0  12967-3 0  9998
2 49310  87.9188 295.5427 0001101  72.3678 287.7576 13.20806890215906
ONEWEB-0385             
1 49311U 21090AJ  26062.68435350  .00000087  00000+0  18141-3 0  9992
2 49311  87.9183 295.5045 0001448  77.8944 282.2352 13.20771357215875
ONEWEB-0386             
1 49312U 21090AK  26062.70169862 -.00000011  00000+0 -58350-4 0  9994
2 49312  87.9185 295.4856 0001352  80.5813 279.5473 13.20769749215894
ONEWEB-0387             
1 49313U 21090AL  26062.68591824  .00000063  00000+0  12298-3 0  9994
2 49313  87.9173 295.5266 0001658  72.8147 287.3168 13.20772940215896
ONEWEB-0388             
1 49314U 21090AM  26062.71922005  .00000014  00000+0  19928-5 0  9993
2 49314  87.9235 325.9810 0001567  78.3485 281.7823 13.19726583212505
